ONEWEB-0176             
1 48210U 21031A   24350.59811591  .00000230  00000+0  58630-3 0  9994
2 48210  87.9008  38.7886 0001765  98.1784 261.9546 13.14503964176244
ONEWEB-0184             
1 48211U 21031B   24350.87562805 -.00000117  00000+0 -35122-3 0  9994
2 48211  87.9001  38.7101 0000916 108.7564 251.3665 13.14501456176259
ONEWEB-0179             
1 48212U 21031C   24350.54102859 -.00000120  00000+0 -35910-3 0  9997
2 48212  87.9010  38.7867 0001842 101.8567 258.2769 13.14503999176250
ONEWEB-0180             
1 48213U 21031D   24350.87879441 -.00000053  00000+0 -17682-3 0  9993
2 48213  87.9001  38.7123 0001707 105.7503 254.3815 13.14501250176188
ONEWEB-0218             
1 48214U 21031E   24350.90100815  .00000278  00000+0  71518-3 0  9995
2 48214  87.9004  38.7096 0001013 128.3458 231.7763 13.14502552176346
ONEWEB-0209             
1 48215U 21031F   24350.88990991  .00000149  00000+0  36838-3 0  9998
2 48215  87.9006  38.7501 0001899 104.0516 256.0825 13.14502616176348
ONEWEB-0198             
1 48216U 21031G   24350.87404020 -.00000107  00000+0 -32247-3 0  9997
2 48216  87.9005  38.7559 0001590 110.1984 249.9317 13.14503362176454
ONEWEB-0189             
1 48217U 21031H   24350.88673640  .00005571  00000+0  14989-1 0  9994
2 48217  87.9007  38.7286 0002238 117.0923 243.0435 13.14477188176196
